OBJECT_NAME,OBJECT_ID,EPOCH,MEAN_MOTION,ECCENTRICITY,INCLINATION,RA_OF_ASC_NODE,ARG_OF_PERICENTER,MEAN_ANOMALY,EPHEMERIS_TYPE,CLASSIFICATION_TYPE,NORAD_CAT_ID,ELEMENT_SET_NO,REV_AT_EPOCH,BSTAR,MEAN_MOTION_DOT,MEAN_MOTION_DDOT
STARLINK-33700,2025-070AA,2026-06-28T13:26:04.831296,15.27595452,.00019494,42.9997,353.5511,276.0235,84.0394,0,U,63484,999,6993,.87655532E-3,.23949E-3,0
STARLINK-33687,2025-070AB,2026-06-28T11:35:15.571968,15.27598681,.00010522,43.0017,353.7906,253.3807,106.6929,0,U,63485,999,6992,.79864251E-3,.21792E-3,0
STARLINK-33716,2025-070AC,2026-06-28T13:16:49.629216,15.27597835,.0001854,43.0018,353.5149,269.2890,90.7749,0,U,63486,999,6993,.42838903E-3,.11551E-3,0
STARLINK-33754,2025-070AD,2026-06-28T04:21:29.366496,15.27596989,.00013718,42.9991,355.8767,273.7681,86.3013,0,U,63487,999,6987,.5047832E-3,.13661E-3,0
POSAT-2,2025-009DR,2026-06-28T15:07:44.980608,15.13232343,.00072608,97.4851,254.4719,110.0085,250.1929,0,U,63488,999,6837,.74193607E-3,.1314E-3,0
HERMES-6,2025-052BK,2026-06-28T10:35:40.875648,15.23269885,.00078831,97.4003,71.7679,122.3886,237.8115,0,U,63489,999,7154,.26096742E-3,.612E-4,0
STARLINK-33828,2025-071A,2026-06-28T14:21:41.631264,15.35423148,.00011675,53.1598,342.4243,66.8225,293.2901,0,U,63493,999,6976,.69471429E-3,.23947E-3,0
STARLINK-33819,2025-071B,2026-06-28T04:34:55.973568,15.34384446,.00011257,53.1596,344.1376,79.9555,280.1575,0,U,63494,999,6970,.86858297E-3,.29069E-3,0
STARLINK-33845,2025-071C,2026-06-28T14:30:13.495968,15.30210895,.00010719,53.1604,344.5807,97.3145,262.7978,0,U,63495,999,6973,.61218759E-3,.17822E-3,0
STARLINK-33829,2025-071D,2026-06-28T14:27:26.140896,15.31725089,.00009983,53.1605,344.5696,111.8337,248.2771,0,U,63496,999,6969,.78213508E-3,.24003E-3,0
STARLINK-33815,2025-071E,2026-06-28T14:20:42.912960,15.31719416,.00011546,53.1601,344.5420,89.1152,270.9982,0,U,63497,999,6975,.63235479E-3,.1932E-3,0
STARLINK-33833,2025-071F,2026-06-28T14:34:09.379200,15.31735782,.00016304,53.1587,344.5958,83.2249,276.8938,0,U,63498,999,6975,.11021017E-2,.34029E-3,0
STARLINK-33534,2025-071G,2026-06-28T15:07:37.841376,15.31719573,.00020781,53.1596,344.0346,76.8648,283.2585,0,U,63499,999,6974,.5579179E-3,.16998E-3,0
STARLINK-33838,2025-071H,2026-06-28T14:36:18.560160,15.30196234,.00012613,53.1595,344.6031,66.5094,293.6039,0,U,63500,999,6954,.6426447E-3,.1872E-3,0
STARLINK-33837,2025-071J,2026-06-28T14:40:52.893984,15.31708565,.00009298,53.1592,344.6271,74.7406,285.3698,0,U,63501,999,6969,.52392866E-3,.15932E-3,0
STARLINK-33818,2025-071K,2026-06-28T14:31:45.176736,15.30218697,.00010125,53.1601,344.5854,93.6056,266.5060,0,U,63502,999,6975,.11235887E-2,.33086E-3,0
STARLINK-33583,2025-071L,2026-06-28T15:02:31.447968,15.50226336,.00043121,53.1585,340.4382,319.4818,40.5870,0,U,63503,999,6982,.13344514E-2,.76984E-3,0
STARLINK-33811,2025-071M,2026-06-28T04:37:12.228960,15.30209684,.00014786,53.1613,346.9817,82.8949,277.2220,0,U,63504,999,6962,.53247671E-3,.15449E-3,0
STARLINK-33825,2025-071N,2026-06-27T17:55:23.005920,15.30214192,.00008997,53.1601,348.4666,91.4355,268.6749,0,U,63505,999,6962,.10912636E-2,.32115E-3,0
STARLINK-33792,2025-071P,2026-06-28T14:24:09.082368,15.30215247,.00010823,53.1602,344.5511,95.3331,264.7793,0,U,63506,999,6970,.10383982E-2,.30536E-3,0
STARLINK-33843,2025-071Q,2026-06-28T14:00:01.000224,15.31720057,.00010996,53.1590,344.7728,92.9426,84.8719,0,U,63507,999,587,-.42099258E-3,-.13414E-3,0
STARLINK-33809,2025-071R,2026-06-28T14:34:47.018496,15.30208295,.0001654,53.1595,344.5597,96.6145,263.5044,0,U,63508,999,6969,.68201423E-3,.19899E-3,0
STARLINK-33678,2025-071S,2026-06-28T15:00:53.815104,15.31721886,.00015414,53.1585,343.9671,105.1386,254.9786,0,U,63509,999,6949,.55618003E-3,.16945E-3,0
STARLINK-33764,2025-071T,2026-06-28T04:41:45.002400,15.30209624,.00010065,53.1618,346.9652,98.4340,261.6775,0,U,63510,999,6966,.48232858E-3,.13957E-3,0
STARLINK-33804,2025-071U,2026-06-28T04:50:13.134624,15.31732828,.00012043,53.1607,346.2974,66.5608,293.5520,0,U,63511,999,6932,.10672345E-2,.32933E-3,0
STARLINK-33751,2025-071V,2026-06-28T04:36:47.643840,15.31723556,.00012067,53.1607,346.2374,64.8220,295.2907,0,U,63512,999,6967,.73972298E-3,.22676E-3,0
STARLINK-33750,2025-071W,2026-06-28T15:21:04.162464,15.31712243,.00019785,53.1603,344.0526,82.1474,277.9752,0,U,63513,999,6974,.48050515E-3,.1458E-3,0
STARLINK-33786,2025-071X,2026-06-28T15:29:29.250816,15.30212281,.00018771,53.1617,344.7918,81.9249,278.1965,0,U,63514,999,6937,.61647467E-3,.1795E-3,0
STARLINK-33796,2025-071Y,2026-06-28T14:27:11.092608,15.30230875,.00010932,53.1603,344.5230,94.4151,265.6974,0,U,63515,999,6975,.99418402E-3,.2923E-3,0
STARLINK-33785,2025-071Z,2026-06-28T04:43:29.730432,15.31729206,.00006699,53.1603,346.2626,56.8668,303.2398,0,U,63516,999,6967,.70680533E-3,.21652E-3,0
STARLINK-33803,2025-071AA,2026-06-28T14:37:49.065888,15.30200746,.00011258,53.1588,344.5639,104.3636,255.7490,0,U,63517,999,6975,.4520904E-3,.13054E-3,0
STARLINK-33807,2025-071AB,2026-06-28T15:22:24.530016,15.34402170,.00011083,53.1613,341.9212,104.0512,256.0614,0,U,63518,999,6979,.59167157E-3,.19668E-3,0
STARLINK-33787,2025-071AC,2026-06-28T15:08:58.538112,15.30199286,.00010289,53.1588,346.8388,87.2234,272.8885,0,U,63519,999,6935,.64438205E-3,.18773E-3,0
TJS-17,2025-073A,2026-06-27T18:41:52.913760,1.00270974,.000182,1.0909,82.6274,313.4105,324.8708,0,U,63524,999,439,0,-.59E-6,0
STARLINK-11669 [DTC],2025-075A,2026-06-27T13:30:08.893152,15.70863178,.00018291,43.0011,211.0895,254.1803,105.8863,0,U,63548,999,7053,.10998942E-2,.143282E-2,0
STARLINK-11665 [DTC],2025-075B,2026-06-28T08:27:05.524128,15.70822234,.00012557,42.9981,206.7044,282.9544,77.1183,0,U,63549,999,7065,.6663732E-3,.85879E-3,0
STARLINK-11667 [DTC],2025-075C,2026-06-28T08:57:40.657536,15.70938648,.00008643,42.9993,206.8751,209.4175,150.6644,0,U,63550,999,7065,.14604235E-2,.192133E-2,0
STARLINK-11695 [DTC],2025-075D,2026-06-27T11:59:53.590848,15.70935021,.0003722,43.0031,211.4790,263.4641,96.5803,0,U,63551,999,7052,.12140244E-2,.15901E-2,0
STARLINK-11685 [DTC],2025-075E,2026-06-28T12:38:51.655200,15.70858286,.00040563,43.0023,205.4279,27.5016,332.6065,0,U,63552,999,7068,.10452835E-2,.136035E-2,0
STARLINK-11697 [DTC],2025-075F,2026-06-28T08:00:04.000032,15.70873276,.00015397,42.9997,206.6702,273.4106,40.4983,0,U,63553,999,599,-.85479738E-3,-.108861E-2,0
STARLINK-11680 [DTC],2025-075G,2026-06-28T11:53:08.649600,15.70907470,.00029369,43.0056,206.0645,279.6758,80.3778,0,U,63554,999,7067,.10907821E-2,.142353E-2,0
STARLINK-11626 [DTC],2025-075J,2026-06-27T19:28:55.375392,15.70921145,.00031037,42.9992,210.4071,270.5069,89.5443,0,U,63556,999,7056,.12700243E-2,.166402E-2,0
STARLINK-11668 [DTC],2025-075K,2026-06-28T09:05:19.150368,15.70980207,.00010208,42.9988,206.9142,124.7717,235.3247,0,U,63557,999,7065,.17388353E-2,.230313E-2,0
STARLINK-11657 [DTC],2025-075L,2026-06-28T13:17:03.870528,15.70860943,.00016112,43.0018,205.6367,291.4758,68.5938,0,U,63558,999,7068,.14818797E-2,.19438E-2,0
STARLINK-11606 [DTC],2025-075M,2026-06-27T13:37:47.609760,15.70868875,.00018825,42.9999,211.1286,260.5481,99.5174,0,U,63559,999,7053,.10859911E-2,.141469E-2,0
STARLINK-11592 [DTC],2025-075N,2026-06-28T11:22:33.343392,15.70948248,.00043753,43.0019,205.8919,269.4595,90.5771,0,U,63560,999,7067,.11371058E-2,.148825E-2,0
STARLINK-32953,2025-075P,2026-06-28T05:55:32.213568,15.27602602,.00019804,43.0033,6.4424,260.1116,99.9512,0,U,63561,999,6883,.61303546E-3,.16657E-3,0
STARLINK-32951,2025-075Q,2026-06-28T12:06:36.741024,15.27588997,.00006824,43.0029,4.9099,282.3576,77.7199,0,U,63562,999,6888,.31155939E-3,.8323E-4,0
STARLINK-32958,2025-075R,2026-06-28T13:25:58.645056,15.27617759,.00003244,43.0000,4.4887,328.8299,31.2533,0,U,63563,999,6888,.63226317E-3,.17197E-3,0
STARLINK-32928,2025-075S,2026-06-28T13:01:55.374528,15.27602318,.00014616,43.0022,4.3653,274.6439,85.4246,0,U,63564,999,6889,.69431968E-3,.18906E-3,0
STARLINK-32687,2025-075T,2026-06-28T12:04:45.690240,15.27589626,.00008496,43.0029,4.8992,273.4338,86.6417,0,U,63565,999,6888,.30936534E-3,.8263E-4,0
STARLINK-32950,2025-075U,2026-06-28T12:54:30.004992,15.27584455,.00004667,43.0012,4.2643,249.5497,110.5304,0,U,63566,999,6888,.28737171E-3,.7655E-4,0
STARLINK-32954,2025-075V,2026-06-28T13:13:00.877440,15.27595981,.00002889,43.0008,4.3926,257.2334,102.8485,0,U,63567,999,6888,.56302984E-3,.15271E-3,0
STARLINK-32940,2025-075W,2026-06-28T13:20:23.352576,15.27624825,.00003704,43.0029,4.4310,247.2357,112.8455,0,U,63568,999,6888,.90272157E-3,.24696E-3,0
STARLINK-32959,2025-076A,2026-06-28T15:21:50.844384,15.27590515,.00009353,43.0033,59.0873,277.8153,82.2593,0,U,63569,999,6875,.61024569E-3,.16574E-3,0
STARLINK-32956,2025-076B,2026-06-28T09:16:06.742560,15.27598271,.00016603,43.0057,59.7560,275.1173,84.9489,0,U,63570,999,6871,.73584168E-3,.20053E-3,0
STARLINK-33722,2025-076C,2026-06-27T22:38:03.114240,15.27598631,.0001335,43.0011,58.9233,268.0148,92.0551,0,U,63571,999,6868,.54965E-3,.14902E-3,0
STARLINK-33739,2025-076D,2026-06-28T15:09:34.632576,15.27583009,.00015237,43.0025,55.4951,263.4500,96.6178,0,U,63572,999,6879,.48271867E-3,.13046E-3,0
STARLINK-33683,2025-076E,2026-06-28T08:51:05.655744,15.27601349,.00015176,43.0010,56.9640,270.9735,89.0943,0,U,63573,999,6875,.65711181E-3,.17876E-3,0
STARLINK-33732,2025-076G,2026-06-28T08:32:35.840832,15.27591193,.0001449,42.9989,56.8671,272.0464,88.0222,0,U,63575,999,6875,.46213264E-3,.12481E-3,0
STARLINK-33800,2025-076H,2026-06-27T22:30:38.842848,15.27592911,.0001853,43.0017,58.8825,275.5145,84.5495,0,U,63576,999,6869,.65092E-3,.177E-3,0
STARLINK-33632,2025-076J,2026-06-28T08:47:23.806464,15.27593382,.00014946,43.0021,56.9413,278.5595,81.5087,0,U,63577,999,6875,.10119015E-2,.27699E-3,0
STARLINK-33719,2025-076K,2026-06-27T22:43:36.173280,15.27602152,.0001496,43.0000,58.9506,266.6790,93.3891,0,U,63578,999,6869,.9481E-3,.25937E-3,0
STARLINK-33755,2025-076L,2026-06-27T22:45:27.597312,15.27547477,.0001308,42.9989,58.8744,271.3099,88.7603,0,U,63579,999,6869,.96149E-3,.26264E-3,0
